OBJECT_NAME,OBJECT_ID,EPOCH,MEAN_MOTION,ECCENTRICITY,INCLINATION,RA_OF_ASC_NODE,ARG_OF_PERICENTER,MEAN_ANOMALY,EPHEMERIS_TYPE,CLASSIFICATION_TYPE,NORAD_CAT_ID,ELEMENT_SET_NO,REV_AT_EPOCH,BSTAR,MEAN_MOTION_DOT,MEAN_MOTION_DDOT
SKYSAT-C4,2016-058B,2026-06-27T00:34:27.716160,15.48889148,.0002116,96.9173,199.3847,140.2622,219.8786,0,U,41771,999,54699,.32846E-3,.17634E-3,0
SKYSAT-C5,2016-058C,2026-06-27T01:56:30.649056,15.34605678,.0001255,97.0469,218.2797,217.2936,142.8221,0,U,41772,999,54526,.23869E-3,.7929E-4,0
SKYSAT-C2,2016-058D,2026-06-27T01:22:21.908928,15.42289112,.0003774,97.0164,199.7812,48.8465,311.3108,0,U,41773,999,54657,.30115E-3,.12888E-3,0
SKYSAT-C3,2016-058E,2026-06-27T01:37:53.840928,15.52952999,.0001245,96.9009,208.5359,120.6263,239.5114,0,U,41774,999,54764,.38933E-3,.24182E-3,0
ALSAT-1B,2016-059C,2026-06-27T03:54:27.158976,14.72281547,.0008884,97.7750,186.4961,185.0304,175.0816,0,U,41785,999,52204,.51734E-4,.28E-5,0
PATHFINDER 1,2016-059E,2026-06-27T05:26:25.045728,14.67673782,.0028645,97.8167,177.0498,171.3104,188.8603,0,U,41787,999,52118,.1118E-3,.593E-5,0
SCATSAT 1,2016-059H,2026-06-27T03:43:01.398720,14.79546149,.005387,98.1188,242.0239,214.7386,145.0303,0,U,41790,999,10306,.15989E-3,.1168E-4,0
GOKTURK 1A,2016-073A,2026-06-27T05:35:05.211744,14.62782802,.0001429,98.1245,72.7496,76.6700,283.4661,0,U,41875,999,51029,.16284E-3,.784E-5,0
RESOURCESAT-2A,2016-074A,2026-06-26T17:06:55.122336,14.21619347,.00032264,98.7527,251.1399,65.3724,294.7789,0,U,41877,999,49565,.87901773E-4,.149E-5,0
CARTOSAT-2D,2017-008A,2026-06-27T04:04:32.932704,15.19282280,.0004798,97.4110,237.2890,193.5072,166.6035,0,U,41948,999,51909,.27954E-3,.5832E-4,0
SENTINEL-2B,2017-013A,2026-06-27T04:58:46.861248,14.30819264,.0001201,98.5694,252.8407,88.9345,271.1976,0,U,42063,999,48607,.7201E-5,-.25E-6,0
CARTOSAT-2E,2017-036C,2026-06-27T04:30:01.492128,15.19240817,.0002269,97.4275,237.8253,268.4424,91.6550,0,U,42767,999,49966,.24966E-3,.5193E-4,0
FORMOSAT-5,2017-049A,2026-06-27T04:34:18.984864,14.50902198,.0012419,98.2252,253.2780,56.5521,303.6860,0,U,42920,999,46812,.4882E-4,.149E-5,0
SENTINEL-5P,2017-064A,2026-06-27T01:40:40.725984,14.19520512,.0001022,98.7926,120.1310,90.1566,269.9727,0,U,42969,999,45096,.36939E-4,.34E-6,0
SKYSAT-C11,2017-068A,2026-06-27T03:21:49.444704,15.58399852,.0000428,97.4353,327.4078,130.8190,229.3103,0,U,42987,999,48479,.41043E-3,.31169E-3,0
SKYSAT-C10,2017-068B,2026-06-27T03:18:16.822944,15.34799007,.000118,97.4509,315.0828,105.6889,254.4484,0,U,42988,999,48388,.2909E-3,.9735E-4,0
SKYSAT-C9,2017-068C,2026-06-27T02:30:55.521792,15.41799334,.0009553,97.4432,316.0796,102.1569,258.0748,0,U,42989,999,48428,.32989E-3,.1391E-3,0
SKYSAT-C8,2017-068D,2026-06-27T02:15:08.900928,15.37162527,.0001342,97.4528,314.8762,94.7512,265.3886,0,U,42990,999,48383,.29401E-3,.10617E-3,0
SKYSAT-C7,2017-068E,2026-06-26T22:58:55.279200,15.37112392,.0007025,97.4536,315.7284,77.9411,282.2620,0,U,42991,999,48387,.30275E-3,.10925E-3,0
SKYSAT-C6,2017-068F,2026-06-27T03:01:27.110208,15.34128495,.0005179,97.4573,315.8303,123.7930,236.3806,0,U,42992,999,48384,.30247E-3,.9916E-4,0
CARTOSAT-2F,2018-004A,2026-06-27T03:41:38.842656,15.19291065,.0001725,97.4793,237.6910,166.8272,193.3008,0,U,43111,999,46884,.24205E-3,.5039E-4,0
GAOFEN-1 02,2018-031A,2026-06-27T04:38:06.705888,14.76421069,.0002884,98.0527,240.6920,5.8414,354.2829,0,U,43259,999,44417,.10677E-3,.691E-5,0
GAOFEN-1 03,2018-031B,2026-06-27T04:06:28.564416,14.76438666,.0003609,98.0514,240.5278,59.2191,300.9373,0,U,43260,999,44416,.25253E-4,.124E-5,0
GAOFEN-1 04,2018-031D,2026-06-27T05:09:13.580928,14.76449088,.0002007,98.0528,240.7630,66.0703,294.0717,0,U,43262,999,44416,.17724E-3,.1181E-4,0
SENTINEL-3B,2018-039A,2026-06-27T03:33:20.666304,14.26737400,.0000757,98.6246,245.5374,108.4761,251.6502,0,U,43437,999,42554,.58567E-4,.98E-6,0
GAOFEN-5 01,2018-043A,2026-06-27T04:48:40.264128,14.60612227,.0002889,98.4575,149.9972,65.6693,294.4808,0,U,43461,999,43315,.83925E-4,.359E-5,0
GAOFEN-6,2018-048A,2026-06-27T04:02:37.017600,14.76373629,.0011727,98.0894,240.8291,133.5954,226.6230,0,U,43484,999,43486,.50543E-4,.299E-5,0
GAOFEN-11 01,2018-063A,2026-06-27T05:01:37.008768,15.55567075,.0002063,97.1294,245.0618,304.7483,55.3578,0,U,43585,999,44190,.20345E-3,.13833E-3,0
ICESAT-2,2018-070A,2026-06-27T04:09:21.613248,15.28200259,.0006259,92.0085,293.6767,96.6980,263.4982,0,U,43613,999,43398,.36679E-3,.10083E-3,0
HYSIS,2018-096A,2026-06-27T03:49:10.173792,14.78637360,.000185,97.9841,244.8291,93.0890,267.0533,0,U,43719,999,40889,.2182E-3,.1546E-4,0
KAZSTSAT,2018-099AB,2026-06-27T00:54:30.636576,14.99899463,.0008564,97.4288,209.5193,42.7264,317.4624,0,U,43783,999,41278,.16037E-3,.1934E-4,0
