SKYSAT-C4               
1 41771U 16058B   26178.02393190  .00017634  00000+0  32846-3 0  9997
2 41771  96.9173 199.3847 0002116 140.2622 219.8786 15.48889148546995
SKYSAT-C5               
1 41772U 16058C   26178.08091029  .00007929  00000+0  23869-3 0  9991
2 41772  97.0469 218.2797 0001255 217.2936 142.8221 15.34605678545264
SKYSAT-C2               
1 41773U 16058D   26178.05719802  .00012888  00000+0  30115-3 0  9997
2 41773  97.0164 199.7812 0003774  48.8465 311.3108 15.42289112546573
SKYSAT-C3               
1 41774U 16058E   26178.06798427  .00024182  00000+0  38933-3 0  9995
2 41774  96.9009 208.5359 0001245 120.6263 239.5114 15.52952999547649
ALSAT-1B                
1 41785U 16059C   26178.16281434  .00000280  00000+0  51734-4 0  9992
2 41785  97.7750 186.4961 0008884 185.0304 175.0816 14.72281547522048
PATHFINDER 1            
1 41787U 16059E   26178.22667877  .00000593  00000+0  11180-3 0  9997
2 41787  97.8167 177.0498 0028645 171.3104 188.8603 14.67673782521187
SCATSAT 1               
1 41790U 16059H   26178.15487730  .00001168  00000+0  15989-3 0  9991
2 41790  98.1188 242.0239 0053870 214.7386 145.0303 14.79546149103060
GOKTURK 1A              
1 41875U 16073A   26178.23269921  .00000784  00000+0  16284-3 0  9992
2 41875  98.1245  72.7496 0001429  76.6700 283.4661 14.62782802510290
RESOURCESAT-2A          
1 41877U 16074A   26177.71313799  .00000149  00000+0  87902-4 0  9991
2 41877  98.7527 251.1399 0003226  65.3724 294.7789 14.21619347495650
CARTOSAT-2D             
1 41948U 17008A   26178.16982561  .00005832  00000+0  27954-3 0  9991
2 41948  97.4110 237.2890 0004798 193.5072 166.6035 15.19282280519095
SENTINEL-2B             
1 42063U 17013A   26178.20748682 -.00000025  00000+0  72010-5 0  9990
2 42063  98.5694 252.8407 0001201  88.9345 271.1976 14.30819264486073
CARTOSAT-2E             
1 42767U 17036C   26178.18751727  .00005193  00000+0  24966-3 0  9992
2 42767  97.4275 237.8253 0002269 268.4424  91.6550 15.19240817499669
FORMOSAT-5              
1 42920U 17049A   26178.19049751  .00000149  00000+0  48820-4 0  9997
2 42920  98.2252 253.2780 0012419  56.5521 303.6860 14.50902198468121
SENTINEL-5P             
1 42969U 17064A   26178.06991581  .00000034  00000+0  36939-4 0  9991
2 42969  98.7926 120.1310 0001022  90.1566 269.9727 14.19520512450969
SKYSAT-C11              
1 42987U 17068A   26178.14015561  .00031169  00000+0  41043-3 0  9993
2 42987  97.4353 327.4078 0000428 130.8190 229.3103 15.58399852484797
SKYSAT-C10              
1 42988U 17068B   26178.13769471  .00009735  00000+0  29090-3 0  9991
2 42988  97.4509 315.0828 0001180 105.6889 254.4484 15.34799007483888
SKYSAT-C9               
1 42989U 17068C   26178.10480928  .00013910  00000+0  32989-3 0  9997
2 42989  97.4432 316.0796 0009553 102.1569 258.0748 15.41799334484287
SKYSAT-C8               
1 42990U 17068D   26178.09385302  .00010617  00000+0  29401-3 0  9993
2 42990  97.4528 314.8762 0001342  94.7512 265.3886 15.37162527483833
SKYSAT-C7               
1 42991U 17068E   26177.95758425  .00010925  00000+0  30275-3 0  9991
2 42991  97.4536 315.7284 0007025  77.9411 282.2620 15.37112392483870
SKYSAT-C6               
1 42992U 17068F   26178.12600822  .00009916  00000+0  30247-3 0  9996
2 42992  97.4573 315.8303 0005179 123.7930 236.3806 15.34128495483840
CARTOSAT-2F             
1 43111U 18004A   26178.15392179  .00005039  00000+0  24205-3 0  9996
2 43111  97.4793 237.6910 0001725 166.8272 193.3008 15.19291065468849
GAOFEN-1 02             
1 43259U 18031A   26178.19313317  .00000691  00000+0  10677-3 0  9997
2 43259  98.0527 240.6920 0002884   5.8414 354.2829 14.76421069444176
GAOFEN-1 03             
1 43260U 18031B   26178.17116394  .00000124  00000+0  25253-4 0  9991
2 43260  98.0514 240.5278 0003609  59.2191 300.9373 14.76438666444162
GAOFEN-1 04             
1 43262U 18031D   26178.21474052  .00001181  00000+0  17724-3 0  9993
2 43262  98.0528 240.7630 0002007  66.0703 294.0717 14.76449088444164
SENTINEL-3B             
1 43437U 18039A   26178.14815586  .00000098  00000+0  58567-4 0  9995
2 43437  98.6246 245.5374 0000757 108.4761 251.6502 14.26737400425549
GAOFEN-5 01             
1 43461U 18043A   26178.20046602  .00000359  00000+0  83925-4 0  9995
2 43461  98.4575 149.9972 0002889  65.6693 294.4808 14.60612227433153
GAOFEN-6                
1 43484U 18048A   26178.16848400  .00000299  00000+0  50543-4 0  9999
2 43484  98.0894 240.8291 0011727 133.5954 226.6230 14.76373629434861
GAOFEN-11 01            
1 43585U 18063A   26178.20945612  .00013833  00000+0  20345-3 0  9990
2 43585  97.1294 245.0618 0002063 304.7483  55.3578 15.55567075441902
ICESAT-2                
1 43613U 18070A   26178.17316682  .00010083  00000+0  36679-3 0  9996
2 43613  92.0085 293.6767 0006259  96.6980 263.4982 15.28200259433988
HYSIS                   
1 43719U 18096A   26178.15914553  .00001546  00000+0  21820-3 0  9996
2 43719  97.9841 244.8291 0001850  93.0890 267.0533 14.78637360408897
KAZSTSAT                
1 43783U 18099AB  26178.03785459  .00001934  00000+0  16037-3 0  9993
2 43783  97.4288 209.5193 0008564  42.7264 317.4624 14.99899463412783
